{"type":"FeatureCollection","name":"hangzhou","attribution":"© OpenStreetMap contributors · ODbL 1.0","license":"https://opendatacommons.org/licenses/odbl/1-0/","retrievedAt":"2026-09-12T07:52:59.226Z","features":[{"type":"Feature","id":"way/260447787","properties":{"highway":"primary","name":"瓶仓大道","oneway":"yes","source":"OpenStreetMap"},"geometry":{"type":"LineString","coordinates":[[119.9691036,30.3779095],[119.9690636,30.3770895],[119.9690398,30.3758828],[119.9690277,30.3751378],[119.9690161,30.3744262],[119.968971,30.3729429],[119.9689573,30.3723419],[119.9689401,30.3715846],[119.9689235,30.3703451],[119.9689045,30.369544],[119.9688906,30.3691169],[119.9688854,30.3689574],[119.9688736,30.3685831],[119.9688522,30.3673681],[119.9688095,30.3658786],[119.9687858,30.3647824],[119.9687806,30.3643617],[119.9687715,30.3636227],[119.9687335,30.3624794],[119.9687098,30.361584],[119.9686741,30.3611312],[119.968591,30.360578],[119.9684771,30.3599592],[119.9683536,30.359449],[119.9681992,30.3589388],[119.9679303,30.3581833],[119.9678766,30.3580345],[119.9675731,30.3571587],[119.9670849,30.3558141],[119.9670468,30.3557064],[119.9666005,30.3543969],[119.9664824,30.3541094],[119.9660277,30.3527252],[119.9658676,30.3518719],[119.9658504,30.3517156]]}},{"type":"Feature","id":"way/260447791","properties":{"highway":"primary","name":"瓶仓大道","oneway":"yes","source":"OpenStreetMap"},"geometry":{"type":"LineString","coordinates":[[119.9660613,30.3517402],[119.9660904,30.3519478],[119.9661439,30.3523293],[119.9662515,30.352847],[119.966698,30.3541426],[119.966779,30.3543688],[119.9670089,30.3550114],[119.9675596,30.356553],[119.9678206,30.3572753],[119.9679962,30.3577614],[119.9680909,30.3580306],[119.9681408,30.3581815],[119.968463,30.3591176],[119.9686544,30.3597435],[119.9687433,30.360225],[119.9687685,30.3603755],[119.9688027,30.3605794],[119.968881,30.361106],[119.9689333,30.36194],[119.9689475,30.3630177],[119.968976,30.3642307],[119.9690116,30.3657448],[119.9690496,30.3673634],[119.9690876,30.3689553],[119.9690923,30.3691167]]}},{"type":"Feature","id":"way/292807919","properties":{"highway":"secondary","name":"前程路","oneway":"yes","source":"OpenStreetMap"},"geometry":{"type":"LineString","coordinates":[[119.983151,30.3702265],[119.9825798,30.3701698],[119.9813037,30.370051],[119.9808824,30.3700075],[119.979949,30.3699104],[119.9789999,30.3698148],[119.9781755,30.3697308],[119.9771629,30.3696497],[119.9759748,30.3695132]]}},{"type":"Feature","id":"way/543835292","properties":{"highway":"service","source":"OpenStreetMap"},"geometry":{"type":"LineString","coordinates":[[119.9711978,30.3711299],[119.9710842,30.3711551],[119.9709674,30.3711653],[119.9708488,30.3711599],[119.9707325,30.3711389],[119.9706213,30.3711029],[119.9705179,30.3710525],[119.9704245,30.3709892],[119.9703436,30.3709142],[119.9702768,30.3708294],[119.9702259,30.3707369],[119.970192,30.3706386],[119.9701759,30.3705371],[119.970178,30.3704347],[119.9701983,30.3703337],[119.9702362,30.3702366],[119.9702909,30.3701456],[119.9703611,30.370063],[119.9704452,30.3699905],[119.970541,30.3699301],[119.9706398,30.3698855],[119.970745,30.3698535],[119.9708544,30.369835],[119.9709657,30.3698302],[119.9710767,30.3698393],[119.971185,30.369862],[119.9712884,30.3698979],[119.9713841,30.3699458],[119.9714708,30.370005],[119.9715469,30.3700743],[119.9716107,30.3701522],[119.971661,30.3702372],[119.9716968,30.3703275],[119.9717173,30.3704212],[119.9717221,30.3705166],[119.9717099,30.3706173],[119.9716802,30.3707153],[119.9716336,30.3708082],[119.9715713,30.3708941],[119.9714947,30.3709708],[119.9714055,30.3710366],[119.9713058,30.37109],[119.9711978,30.3711299]]}},{"type":"Feature","id":"way/543835294","properties":{"highway":"service","source":"OpenStreetMap"},"geometry":{"type":"LineString","coordinates":[[119.970541,30.3699301],[119.9704956,30.3691085]]}},{"type":"Feature","id":"way/543835295","properties":{"highway":"service","source":"OpenStreetMap"},"geometry":{"type":"LineString","coordinates":[[119.9712884,30.3698979],[119.9712409,30.3691172]]}},{"type":"Feature","id":"way/544782833","properties":{"highway":"service","source":"OpenStreetMap"},"geometry":{"type":"LineString","coordinates":[[119.9732384,30.3692604],[119.9732413,30.3695767],[119.9726887,30.3695581],[119.9726496,30.3704499],[119.973878,30.3704499],[119.9738941,30.3696122],[119.9732413,30.3695767]]}},{"type":"Feature","id":"way/544782835","properties":{"building":"yes","source":"OpenStreetMap"},"geometry":{"type":"Polygon","coordinates":[[[119.9727871,30.3699286],[119.9727856,30.3697758],[119.9732414,30.3697725],[119.9732429,30.3699252],[119.9727871,30.3699286]]]}},{"type":"Feature","id":"way/544782837","properties":{"building":"yes","source":"OpenStreetMap"},"geometry":{"type":"Polygon","coordinates":[[[119.9733784,30.3699415],[119.97338,30.3697842],[119.9738037,30.3697874],[119.9738021,30.3699447],[119.9733784,30.3699415]]]}},{"type":"Feature","id":"way/551183323","properties":{"highway":"tertiary","name":"花园路","source":"OpenStreetMap"},"geometry":{"type":"LineString","coordinates":[[119.9725869,30.3778359],[119.9724862,30.3739979],[119.9724354,30.372346],[119.9724086,30.3705166],[119.9723672,30.3691715],[119.9723617,30.3690401]]}},{"type":"Feature","id":"way/611943902","properties":{"highway":"tertiary","name":"乌山头路","source":"OpenStreetMap"},"geometry":{"type":"LineString","coordinates":[[119.9741906,30.3718812],[119.9741544,30.3704711],[119.9741153,30.3694618],[119.9741045,30.3693399]]}},{"type":"Feature","id":"way/611943904","properties":{"highway":"tertiary","name":"紫塍路","source":"OpenStreetMap"},"geometry":{"type":"LineString","coordinates":[[119.9760367,30.3680999],[119.9760694,30.3673866],[119.9761721,30.3654178],[119.976207,30.3647484],[119.9762142,30.3646096],[119.9762597,30.363863],[119.9763964,30.3616178]]}},{"type":"Feature","id":"way/696154168","properties":{"landuse":"industrial","source":"OpenStreetMap"},"geometry":{"type":"Polygon","coordinates":[[[119.9803805,30.3719958],[119.979273,30.3719777],[119.9779746,30.3719565],[119.9779907,30.3714636],[119.978216,30.3699131],[119.9761507,30.3696979],[119.9760622,30.3697534],[119.9759415,30.3723638],[119.9761721,30.3733149],[119.9765611,30.3737707],[119.9773094,30.3744927],[119.9778378,30.3740345],[119.9782401,30.373854],[119.9784011,30.3738448],[119.9785352,30.3738726],[119.9788356,30.375018],[119.9809304,30.375025],[119.9808687,30.3731876],[119.9804556,30.3731668],[119.9803805,30.3719958]]]}},{"type":"Feature","id":"way/970681956","properties":{"waterway":"canal","source":"OpenStreetMap"},"geometry":{"type":"LineString","coordinates":[[119.9695844,30.3582115],[119.9695602,30.3585168],[119.9693319,30.358666],[119.969147,30.3590977],[119.9695051,30.3614219],[119.9697389,30.3621803],[119.9696738,30.3626426],[119.9696005,30.3644112],[119.9697965,30.3653234],[119.9696372,30.3661352],[119.9696522,30.3670652],[119.9695644,30.3683743],[119.9697534,30.3688308],[119.9697282,30.3692874],[119.9695906,30.3701508],[119.9695355,30.3705084],[119.969577,30.3724691],[119.9696566,30.3738371],[119.9696291,30.3750745],[119.9697787,30.3755322],[119.9699007,30.3759977],[119.9706427,30.376712],[119.9711246,30.3769578],[119.9720506,30.3772553],[119.9725162,30.3782207],[119.9732562,30.3789072],[119.9734944,30.379263],[119.9737628,30.3798947],[119.9741818,30.3804115],[119.9747059,30.3806243],[119.9750792,30.3808797],[119.9752443,30.3811211],[119.9755683,30.3816396],[119.9757178,30.3820466]]}},{"type":"Feature","id":"way/1029479371","properties":{"highway":"secondary","oneway":"yes","source":"OpenStreetMap"},"geometry":{"type":"LineString","coordinates":[[119.9681408,30.3581815],[119.9679303,30.3581833],[119.9660085,30.3581811],[119.9637193,30.3581785],[119.9602153,30.3581745],[119.9601023,30.358172],[119.9597838,30.3581782],[119.9560426,30.3582106],[119.9559404,30.3582055],[119.955822,30.3581995],[119.9556931,30.358193]]}},{"type":"Feature","id":"way/1029479372","properties":{"highway":"secondary","oneway":"yes","source":"OpenStreetMap"},"geometry":{"type":"LineString","coordinates":[[119.9624077,30.3580143],[119.9660084,30.3580121],[119.9678766,30.3580345],[119.9680909,30.3580306]]}},{"type":"Feature","id":"way/1061641316","properties":{"amenity":"university","name":"杭州市北京航空航天大学国际创新研究院","name:en":"The Hangzhou International Innovation Institute of Beihang University","operator":"Beihang University","operator:type":"public","website":"https://zfaien.buaa.edu.cn/","source":"OpenStreetMap"},"geometry":{"type":"Polygon","coordinates":[[[119.9693119,30.3687228],[119.9691935,30.3654754],[119.9691474,30.3628426],[119.9691428,30.3626759],[119.9691105,30.3614983],[119.9690183,30.360679],[119.9688708,30.3599233],[119.9687141,30.359279],[119.9684947,30.3583971],[119.9708272,30.3583774],[119.9740845,30.3584551],[119.9757834,30.3584075],[119.9757987,30.3590138],[119.9757171,30.3620808],[119.9756551,30.3630409],[119.9755114,30.3654322],[119.9755151,30.3665983],[119.9753561,30.3668579],[119.9753244,30.366879],[119.9753514,30.3681459],[119.9757575,30.3686875],[119.9757184,30.3691895],[119.9715236,30.3688465],[119.9693119,30.3687228]]]}},{"type":"Feature","id":"way/1070902241","properties":{"highway":"tertiary","source":"OpenStreetMap"},"geometry":{"type":"LineString","coordinates":[[119.9762142,30.3646096],[119.9799665,30.3647061],[119.9831532,30.3648045],[119.98332,30.3648093]]}},{"type":"Feature","id":"way/1072154708","properties":{"highway":"secondary","oneway":"yes","source":"OpenStreetMap"},"geometry":{"type":"LineString","coordinates":[[119.9825272,30.3581223],[119.9823619,30.358123],[119.9798869,30.3581606],[119.9791306,30.3581579],[119.9779238,30.3581535],[119.9763334,30.3581478]]}},{"type":"Feature","id":"way/1072154711","properties":{"highway":"tertiary","source":"OpenStreetMap"},"geometry":{"type":"LineString","coordinates":[[119.9763889,30.3604015],[119.9779136,30.3604081],[119.9799319,30.3604169],[119.9827585,30.3603872],[119.9829063,30.3603856]]}},{"type":"Feature","id":"way/1072154712","properties":{"highway":"tertiary","source":"OpenStreetMap"},"geometry":{"type":"LineString","coordinates":[[119.9835548,30.3678207],[119.9833979,30.3678198],[119.9799605,30.3675886],[119.9773753,30.3673786],[119.9760694,30.3673866],[119.9759269,30.3673897]]}},{"type":"Feature","id":"way/1091869187","properties":{"bridge":"yes","highway":"secondary","layer":"1","name":"前程路","oneway":"yes","source":"OpenStreetMap"},"geometry":{"type":"LineString","coordinates":[[119.969927,30.3691121],[119.9692789,30.3691152]]}},{"type":"Feature","id":"way/1091869188","properties":{"highway":"secondary","name":"前程路","oneway":"yes","source":"OpenStreetMap"},"geometry":{"type":"LineString","coordinates":[[119.9759808,30.3693803],[119.9799677,30.3697652],[119.9808892,30.369872],[119.9828401,30.3700304],[119.9831927,30.3700598],[119.9836273,30.3700929],[119.9837894,30.3700973]]}},{"type":"Feature","id":"way/1091869189","properties":{"bridge":"yes","highway":"secondary","layer":"1","name":"前程路","oneway":"yes","source":"OpenStreetMap"},"geometry":{"type":"LineString","coordinates":[[119.969304,30.3689494],[119.9699295,30.3689523]]}},{"type":"Feature","id":"way/1095314534","properties":{"waterway":"river","source":"OpenStreetMap"},"geometry":{"type":"LineString","coordinates":[[119.9760561,30.3582861],[119.9759284,30.3583299],[119.9758831,30.3585507],[119.9759386,30.3603177],[119.9758839,30.3613933],[119.9758838,30.361513],[119.9758822,30.3634863],[119.9756477,30.366091],[119.9755709,30.3670941],[119.9755996,30.3679494],[119.9758253,30.3682069],[119.9761815,30.3685024],[119.9765826,30.3687901],[119.9770863,30.3689971],[119.9782363,30.3690773],[119.9795001,30.3690637],[119.9811908,30.368793],[119.9821265,30.3691624],[119.9826494,30.3693134],[119.9830343,30.3698167]]}},{"type":"Feature","id":"way/1095314539","properties":{"waterway":"stream","source":"OpenStreetMap"},"geometry":{"type":"LineString","coordinates":[[119.9695107,30.3494768],[119.9698185,30.3505095],[119.9698566,30.3522093],[119.9696202,30.355329],[119.9761767,30.3553962],[119.9760979,30.3575761],[119.9760673,30.3579257]]}},{"type":"Feature","id":"way/1095314540","properties":{"layer":"-1","tunnel":"culvert","waterway":"stream","source":"OpenStreetMap"},"geometry":{"type":"LineString","coordinates":[[119.9760667,30.358113],[119.9760561,30.3582861]]}},{"type":"Feature","id":"way/1095314541","properties":{"highway":"tertiary","source":"OpenStreetMap"},"geometry":{"type":"LineString","coordinates":[[119.9764028,30.361177],[119.9763991,30.3609705],[119.9763889,30.3604015],[119.976372,30.3597163],[119.9763334,30.3581478]]}},{"type":"Feature","id":"way/1095314544","properties":{"layer":"-1","tunnel":"culvert","waterway":"stream","source":"OpenStreetMap"},"geometry":{"type":"LineString","coordinates":[[119.9760673,30.3579257],[119.9760667,30.358113]]}},{"type":"Feature","id":"way/1095314545","properties":{"waterway":"stream","source":"OpenStreetMap"},"geometry":{"type":"LineString","coordinates":[[119.9760979,30.3575761],[119.969594,30.3575342],[119.969588,30.3579585],[119.9695844,30.3582115]]}},{"type":"Feature","id":"way/1095314550","properties":{"waterway":"stream","source":"OpenStreetMap"},"geometry":{"type":"LineString","coordinates":[[119.969594,30.3575342],[119.9696202,30.355329]]}},{"type":"Feature","id":"way/1095535267","properties":{"building":"yes","name":"兰欧酒店(杭州良渚古城遗址公园店)","tourism":"hotel","source":"OpenStreetMap"},"geometry":{"type":"Polygon","coordinates":[[[119.9749793,30.3704658],[119.9749641,30.3696179],[119.9757488,30.3697362],[119.9757942,30.3705549],[119.9749793,30.3704658]]]}},{"type":"Feature","id":"way/1095535272","properties":{"landuse":"commercial","name":"骏峰国际","source":"OpenStreetMap"},"geometry":{"type":"Polygon","coordinates":[[[119.9675534,30.3701311],[119.9675457,30.3693741],[119.9685884,30.3693459],[119.9687268,30.3694646],[119.9687725,30.3702488],[119.9675534,30.3701311]]]}},{"type":"Feature","id":"way/1095535273","properties":{"landuse":"commercial","name":"荣尚大厦","source":"OpenStreetMap"},"geometry":{"type":"Polygon","coordinates":[[[119.9675534,30.3701311],[119.9664763,30.3700723],[119.9664628,30.3695106],[119.966532,30.3693756],[119.9675457,30.3693741],[119.9675534,30.3701311]]]}},{"type":"Feature","id":"way/1104993064","properties":{"landuse":"construction","source":"OpenStreetMap"},"geometry":{"type":"Polygon","coordinates":[[[119.9662316,30.3620005],[119.9661595,30.3583297],[119.9677321,30.3583162],[119.9681611,30.359377],[119.9684754,30.3607539],[119.9685359,30.3623785],[119.9685359,30.3625293],[119.9665272,30.3623441],[119.9662316,30.3620005]]]}},{"type":"Feature","id":"way/1104993068","properties":{"landuse":"construction","source":"OpenStreetMap"},"geometry":{"type":"Polygon","coordinates":[[[119.9650707,30.3578612],[119.9650677,30.3558528],[119.9669163,30.3558068],[119.9675213,30.357566],[119.9675956,30.3577567],[119.9674915,30.357881],[119.9650707,30.3578612]]]}},{"type":"Feature","id":"way/1160651435","properties":{"waterway":"stream","source":"OpenStreetMap"},"geometry":{"type":"LineString","coordinates":[[119.9819776,30.3614382],[119.9785234,30.361472],[119.9779108,30.3615225],[119.9758838,30.361513]]}},{"type":"Feature","id":"way/1160651438","properties":{"waterway":"river","source":"OpenStreetMap"},"geometry":{"type":"LineString","coordinates":[[119.9696522,30.3670652],[119.9755709,30.3670941]]}},{"type":"Feature","id":"way/1160651439","properties":{"landuse":"residential","name":"星创杭启云珹府","source":"OpenStreetMap"},"geometry":{"type":"Polygon","coordinates":[[[119.9762943,30.3672873],[119.9764336,30.3648276],[119.9798468,30.36488],[119.979917,30.3674351],[119.9762943,30.3672873]]]}},{"type":"Feature","id":"way/1160651440","properties":{"highway":"tertiary","source":"OpenStreetMap"},"geometry":{"type":"LineString","coordinates":[[119.9693849,30.3673712],[119.9690496,30.3673634]]}},{"type":"Feature","id":"way/1160651441","properties":{"bridge":"yes","highway":"tertiary","layer":"1","source":"OpenStreetMap"},"geometry":{"type":"LineString","coordinates":[[119.9699071,30.3673833],[119.9693849,30.3673712]]}},{"type":"Feature","id":"way/1160651442","properties":{"highway":"tertiary","source":"OpenStreetMap"},"geometry":{"type":"LineString","coordinates":[[119.97537,30.3673813],[119.9716959,30.3673826],[119.9699071,30.3673833]]}},{"type":"Feature","id":"way/1160651443","properties":{"bridge":"yes","highway":"tertiary","layer":"1","source":"OpenStreetMap"},"geometry":{"type":"LineString","coordinates":[[119.9759269,30.3673897],[119.97537,30.3673813]]}},{"type":"Feature","id":"way/1160651449","properties":{"landuse":"residential","name":"华昭府","source":"OpenStreetMap"},"geometry":{"type":"Polygon","coordinates":[[[119.9764855,30.3644678],[119.976649,30.3617103],[119.9798307,30.3616595],[119.9798853,30.3645772],[119.9764855,30.3644678]]]}},{"type":"Feature","id":"way/1160651450","properties":{"waterway":"canal","source":"OpenStreetMap"},"geometry":{"type":"LineString","coordinates":[[119.9695602,30.3585168],[119.9758831,30.3585507]]}},{"type":"Feature","id":"way/1246212944","properties":{"bridge":"yes","highway":"tertiary","layer":"1","name":"紫塍路","source":"OpenStreetMap"},"geometry":{"type":"LineString","coordinates":[[119.9763964,30.3616178],[119.9764028,30.361177]]}},{"type":"Feature","id":"way/1246212945","properties":{"highway":"tertiary","name":"紫塍路","source":"OpenStreetMap"},"geometry":{"type":"LineString","coordinates":[[119.9759748,30.3695132],[119.9759808,30.3693803]]}},{"type":"Feature","id":"way/1246212946","properties":{"bridge":"yes","highway":"tertiary","layer":"1","name":"紫塍路","source":"OpenStreetMap"},"geometry":{"type":"LineString","coordinates":[[119.9760159,30.368666],[119.9760367,30.3680999]]}},{"type":"Feature","id":"way/1246212947","properties":{"highway":"secondary","oneway":"yes","source":"OpenStreetMap"},"geometry":{"type":"LineString","coordinates":[[119.9763277,30.3580403],[119.9794646,30.3580527],[119.9798866,30.3580517],[119.9804986,30.3580503],[119.9823469,30.3580461]]}},{"type":"Feature","id":"way/1246212948","properties":{"highway":"secondary","oneway":"yes","source":"OpenStreetMap"},"geometry":{"type":"LineString","coordinates":[[119.9680909,30.3580306],[119.969376,30.3580406]]}},{"type":"Feature","id":"way/1246212949","properties":{"bridge":"yes","highway":"secondary","layer":"1","oneway":"yes","source":"OpenStreetMap"},"geometry":{"type":"LineString","coordinates":[[119.969376,30.3580406],[119.9699231,30.3580385]]}},{"type":"Feature","id":"way/1246212950","properties":{"highway":"secondary","oneway":"yes","source":"OpenStreetMap"},"geometry":{"type":"LineString","coordinates":[[119.969371,30.3581758],[119.9681408,30.3581815]]}},{"type":"Feature","id":"way/1246212951","properties":{"bridge":"yes","highway":"secondary","layer":"1","oneway":"yes","source":"OpenStreetMap"},"geometry":{"type":"LineString","coordinates":[[119.9699281,30.3581754],[119.969371,30.3581758]]}},{"type":"Feature","id":"way/1272030553","properties":{"building":"yes","source":"OpenStreetMap轮廓＋北航官网校区图核对名称；高度按照片层数估算","name":"L6 实验六号楼（西翼）"},"geometry":{"type":"Polygon","coordinates":[[[119.9699569,30.3667726],[119.9707555,30.3667738],[119.970756,30.3665383],[119.9699573,30.3665371],[119.9699569,30.3667726]]]}},{"type":"Feature","id":"way/1272030554","properties":{"building":"yes","source":"OpenStreetMap轮廓＋北航官网校区图核对名称；高度按照片层数估算","name":"L6 实验六号楼"},"geometry":{"type":"Polygon","coordinates":[[[119.9709403,30.3667848],[119.9715625,30.3667873],[119.9715669,30.3659553],[119.9709447,30.3659529],[119.9709403,30.3667848]]]}},{"type":"Feature","id":"way/1272030555","properties":{"building":"yes","source":"OpenStreetMap轮廓＋北航官网校区图核对名称；高度按照片层数估算","name":"L5 实验五号楼"},"geometry":{"type":"Polygon","coordinates":[[[119.9709253,30.3658623],[119.9715547,30.3658678],[119.971561,30.3653327],[119.9709316,30.3653271],[119.9709253,30.3658623]]]}},{"type":"Feature","id":"way/1272030556","properties":{"building":"yes","source":"OSM轮廓＋北航场馆实景照片；白色波纹外壳、南端台阶与游泳馆一体重建，尺寸与曲率估算","name":"体育馆·篮球馆／训练馆／游泳馆","model":"hangzhou-sport","displayHeight":24,"sourceUrl":"https://zfai.buaa.edu.cn/info/1253/2465.htm"},"geometry":{"type":"Polygon","coordinates":[[[119.9708421,30.3602544],[119.9716453,30.3602436],[119.97162,30.3588456],[119.970817,30.3588563],[119.9708421,30.3602544]]]}},{"type":"Feature","id":"way/1272030557","properties":{"highway":"residential","source":"OpenStreetMap"},"geometry":{"type":"LineString","coordinates":[[119.9695988,30.3603758],[119.9699294,30.3603772],[119.9717046,30.3603848],[119.9725541,30.3603884],[119.9729572,30.3603901],[119.9737271,30.3603934],[119.9737767,30.3631845],[119.9737484,30.3647228],[119.9738169,30.3647232],[119.9747758,30.3647286],[119.9751575,30.3647307],[119.9753959,30.3647321],[119.9755084,30.3647327]]}},{"type":"Feature","id":"way/1272030558","properties":{"highway":"service","source":"OpenStreetMap"},"geometry":{"type":"LineString","coordinates":[[119.9687685,30.3603755],[119.9691459,30.360377]]}},{"type":"Feature","id":"way/1272030559","properties":{"bridge":"yes","highway":"service","layer":"1","source":"OpenStreetMap"},"geometry":{"type":"LineString","coordinates":[[119.9691459,30.360377],[119.9695988,30.3603758]]}},{"type":"Feature","id":"way/1272030560","properties":{"highway":"service","source":"OpenStreetMap"},"geometry":{"type":"LineString","coordinates":[[119.9760305,30.3647444],[119.976207,30.3647484]]}},{"type":"Feature","id":"way/1272030561","properties":{"bridge":"yes","highway":"service","layer":"1","name":"East Gate, Hangzhou International School","source":"OpenStreetMap"},"geometry":{"type":"LineString","coordinates":[[119.9755084,30.3647327],[119.9760305,30.3647444]]}},{"type":"Feature","id":"way/1272030562","properties":{"highway":"residential","source":"OpenStreetMap"},"geometry":{"type":"LineString","coordinates":[[119.9717212,30.3668509],[119.9717217,30.3668405],[119.9717216,30.3668037],[119.9717206,30.3665501],[119.9717142,30.3649953],[119.9717131,30.3647197],[119.9728669,30.3647215],[119.9737484,30.3647228]]}},{"type":"Feature","id":"way/1272030563","properties":{"bridge":"yes","highway":"service","layer":"1","source":"OpenStreetMap"},"geometry":{"type":"LineString","coordinates":[[119.9716998,30.3672996],[119.9717212,30.3668509]]}},{"type":"Feature","id":"way/1272030564","properties":{"highway":"service","source":"OpenStreetMap"},"geometry":{"type":"LineString","coordinates":[[119.9716959,30.3673826],[119.9716998,30.3672996]]}},{"type":"Feature","id":"way/1272030565","properties":{"highway":"residential","source":"OpenStreetMap"},"geometry":{"type":"LineString","coordinates":[[119.9737271,30.3603934],[119.9737274,30.3603719],[119.9737489,30.3588203],[119.97375,30.3587425],[119.9737511,30.3586695]]}},{"type":"Feature","id":"way/1272030566","properties":{"highway":"service","source":"OpenStreetMap"},"geometry":{"type":"LineString","coordinates":[[119.9737549,30.358409],[119.9737585,30.3581589]]}},{"type":"Feature","id":"way/1272030567","properties":{"bridge":"yes","highway":"service","layer":"1","source":"OpenStreetMap"},"geometry":{"type":"LineString","coordinates":[[119.9737511,30.3586695],[119.9737549,30.358409]]}},{"type":"Feature","id":"way/1272030568","properties":{"highway":"residential","source":"OpenStreetMap"},"geometry":{"type":"LineString","coordinates":[[119.9717131,30.3647197],[119.9717128,30.364568],[119.9717097,30.36299],[119.9717086,30.3624124],[119.9717046,30.3603848]]}},{"type":"Feature","id":"way/1279663511","properties":{"landuse":"residential","name":"前程和悦府","source":"OpenStreetMap"},"geometry":{"type":"Polygon","coordinates":[[[119.9797723,30.3687993],[119.9792787,30.3688583],[119.9786274,30.3688621],[119.9780569,30.3688508],[119.9774599,30.3688011],[119.9769896,30.3686967],[119.9765908,30.3684839],[119.976285,30.3682274],[119.9762453,30.3680852],[119.976267,30.3676819],[119.9763838,30.3676042],[119.9772481,30.3675617],[119.9780237,30.3676058],[119.9789126,30.3676698],[119.9796636,30.3677452],[119.9797361,30.3678458],[119.9797659,30.3679789],[119.9797723,30.3687993]]]}},{"type":"Feature","id":"way/1313412996","properties":{"building":"yes","name":"D13 学生宿舍","source":"OpenStreetMap轮廓＋北航官网校区图核对名称；高度按照片层数估算","model":"dorm","displayHeight":35},"geometry":{"type":"Polygon","coordinates":[[[119.9728691,30.3668299],[119.9737531,30.3668256],[119.9737517,30.3666127],[119.9728677,30.3666171],[119.9728691,30.3668299]]]}},{"type":"Feature","id":"way/1313412997","properties":{"building":"yes","source":"OpenStreetMap轮廓＋北航官网校区图核对名称；高度按照片层数估算","name":"D14 学生宿舍","model":"dorm","displayHeight":35},"geometry":{"type":"Polygon","coordinates":[[[119.9738371,30.3668158],[119.9747059,30.366804],[119.9747025,30.366617],[119.9738336,30.3666289],[119.9738371,30.3668158]]]}},{"type":"Feature","id":"way/1313412998","properties":{"building":"yes","source":"OpenStreetMap轮廓＋北航官网校区图核对名称；高度按照片层数估算","name":"A4 教师公寓","model":"dorm","displayHeight":29},"geometry":{"type":"Polygon","coordinates":[[[119.9748346,30.366863],[119.9753561,30.3668579],[119.975354,30.3667003],[119.9748325,30.3667055],[119.9748346,30.366863]]]}},{"type":"Feature","id":"way/1313412999","properties":{"building":"yes","name":"D11 学生宿舍","source":"OpenStreetMap轮廓＋北航官网校区图核对名称；高度按照片层数估算","model":"dorm","displayHeight":35},"geometry":{"type":"Polygon","coordinates":[[[119.9728871,30.3661731],[119.9737547,30.366174],[119.973755,30.365991],[119.9728874,30.3659899],[119.9728871,30.3661731]]]}},{"type":"Feature","id":"way/1313413000","properties":{"building":"yes","name":"D12 学生宿舍","source":"OpenStreetMap轮廓＋北航官网校区图核对名称；高度按照片层数估算","model":"dorm","displayHeight":35},"geometry":{"type":"Polygon","coordinates":[[[119.9738367,30.3661627],[119.9747157,30.3661647],[119.9747161,30.3660096],[119.9738371,30.3660075],[119.9738367,30.3661627]]]}},{"type":"Feature","id":"way/1313413001","properties":{"building":"yes","source":"OpenStreetMap轮廓＋北航官网校区图核对名称；高度按照片层数估算","name":"A3 教师公寓","model":"dorm","displayHeight":29},"geometry":{"type":"Polygon","coordinates":[[[119.9748213,30.3661649],[119.9753634,30.3661694],[119.9753652,30.3660181],[119.974823,30.3660135],[119.9748213,30.3661649]]]}},{"type":"Feature","id":"way/1313413002","properties":{"building":"yes","name":"D9 学生宿舍","source":"OpenStreetMap轮廓＋北航官网校区图核对名称；高度按照片层数估算","model":"dorm","displayHeight":35},"geometry":{"type":"Polygon","coordinates":[[[119.9728901,30.3655927],[119.9737188,30.3656102],[119.9737244,30.3654134],[119.9728957,30.3653957],[119.9728901,30.3655927]]]}},{"type":"Feature","id":"way/1313413003","properties":{"building":"yes","name":"D10 学生宿舍","source":"OpenStreetMap轮廓＋北航官网校区图核对名称；高度按照片层数估算","model":"dorm","displayHeight":35},"geometry":{"type":"Polygon","coordinates":[[[119.9738387,30.3655823],[119.9746822,30.3655944],[119.974686,30.365398],[119.9738425,30.3653858],[119.9738387,30.3655823]]]}},{"type":"Feature","id":"way/1313413004","properties":{"building":"yes","source":"OpenStreetMap轮廓＋北航官网校区图核对名称；高度按照片层数估算","name":"A2 教师公寓","model":"dorm","displayHeight":29},"geometry":{"type":"Polygon","coordinates":[[[119.9748046,30.365443],[119.9754033,30.3654539],[119.9753997,30.3656034],[119.9748009,30.3655926],[119.9748046,30.365443]]]}},{"type":"Feature","id":"way/1313413005","properties":{"amenity":"restaurant","building":"yes","name":"北区食堂","source":"OpenStreetMap"},"geometry":{"type":"Polygon","coordinates":[[[119.9729113,30.365282],[119.9737569,30.3652881],[119.973761,30.3648658],[119.9729155,30.3648595],[119.9729113,30.365282]]]}},{"type":"Feature","id":"way/1313413006","properties":{"building":"yes","name":"D8 学生宿舍","source":"OpenStreetMap轮廓＋北航官网校区图核对名称；高度按照片层数估算","model":"dorm","displayHeight":35},"geometry":{"type":"Polygon","coordinates":[[[119.9738362,30.3648432],[119.974694,30.3648441],[119.9746937,30.3650311],[119.9738359,30.36503],[119.9738362,30.3648432]]]}},{"type":"Feature","id":"way/1313413007","properties":{"building":"yes","source":"OpenStreetMap轮廓＋北航官网校区图核对名称；高度按照片层数估算","name":"A1 教师公寓","model":"dorm","displayHeight":29},"geometry":{"type":"Polygon","coordinates":[[[119.9748063,30.3648518],[119.9754007,30.3648451],[119.9754028,30.3649806],[119.9752355,30.3649825],[119.9748084,30.3649874],[119.9748063,30.3648518]]]}},{"type":"Feature","id":"way/1313413008","properties":{"building":"yes","source":"OpenStreetMap轮廓＋北航官网校区图核对名称；高度按照片层数估算","name":"D1 学生宿舍","model":"dorm","displayHeight":35},"geometry":{"type":"Polygon","coordinates":[[[119.9749215,30.3607108],[119.9755735,30.3607139],[119.9755749,30.3604978],[119.9749229,30.3604948],[119.9749215,30.3607108]]]}},{"type":"Feature","id":"way/1313413009","properties":{"building":"yes","source":"OpenStreetMap轮廓＋北航官网校区图核对名称；高度按照片层数估算","name":"南区食堂"},"geometry":{"type":"Polygon","coordinates":[[[119.9739944,30.3608936],[119.9747081,30.3608876],[119.9747036,30.3604863],[119.9739899,30.3604922],[119.9739944,30.3608936]]]}},{"type":"Feature","id":"way/1313413010","properties":{"building":"yes","source":"OpenStreetMap轮廓＋北航官网校区图核对名称；高度按照片层数估算","name":"D2 学生宿舍","model":"dorm","displayHeight":35},"geometry":{"type":"Polygon","coordinates":[[[119.9739197,30.3610317],[119.974783,30.3610494],[119.9747775,30.3612527],[119.9739141,30.3612351],[119.9739197,30.3610317]]]}},{"type":"Feature","id":"way/1313413011","properties":{"building":"yes","source":"OpenStreetMap轮廓＋北航官网校区图核对名称；高度按照片层数估算","name":"D3 学生宿舍","model":"dorm","displayHeight":35},"geometry":{"type":"Polygon","coordinates":[[[119.9749217,30.3610775],[119.9755621,30.3610755],[119.9755629,30.3612607],[119.9749225,30.3612628],[119.9749217,30.3610775]]]}},{"type":"Feature","id":"way/1313413012","properties":{"building":"yes","source":"OpenStreetMap轮廓＋北航官网校区图核对名称；高度按照片层数估算","name":"D4 学生宿舍","model":"dorm","displayHeight":35},"geometry":{"type":"Polygon","coordinates":[[[119.973949,30.3616052],[119.9748087,30.3615883],[119.9748136,30.3617762],[119.9739539,30.3617929],[119.973949,30.3616052]]]}},{"type":"Feature","id":"way/1313413013","properties":{"building":"yes","source":"OpenStreetMap轮廓＋北航官网校区图核对名称；高度按照片层数估算","name":"D5 学生宿舍","model":"dorm","displayHeight":35},"geometry":{"type":"Polygon","coordinates":[[[119.9749012,30.3616025],[119.9755549,30.3615929],[119.9755585,30.3617739],[119.9749047,30.3617834],[119.9749012,30.3616025]]]}},{"type":"Feature","id":"way/1313413014","properties":{"building":"yes","source":"OpenStreetMap轮廓＋北航官网校区图核对名称；高度按照片层数估算","name":"D6 学生宿舍","model":"dorm","displayHeight":35},"geometry":{"type":"Polygon","coordinates":[[[119.9739237,30.3621218],[119.9747708,30.3621253],[119.9747698,30.3622992],[119.9739228,30.3622959],[119.9739237,30.3621218]]]}},{"type":"Feature","id":"way/1313413015","properties":{"building":"yes","source":"OpenStreetMap轮廓＋北航官网校区图核对名称；高度按照片层数估算","name":"D7 学生宿舍","model":"dorm","displayHeight":35},"geometry":{"type":"Polygon","coordinates":[[[119.9748725,30.362143],[119.9755131,30.3621485],[119.9755113,30.362307],[119.9748707,30.3623016],[119.9748725,30.362143]]]}},{"type":"Feature","id":"way/1315734732","properties":{"highway":"tertiary","source":"OpenStreetMap"},"geometry":{"type":"LineString","coordinates":[[119.9687806,30.3643617],[119.9661776,30.3643181],[119.9630984,30.3642665],[119.9629704,30.3642644]]}},{"type":"Feature","id":"way/1315734735","properties":{"waterway":"drain","source":"OpenStreetMap"},"geometry":{"type":"LineString","coordinates":[[119.961644,30.3627434],[119.9686977,30.3626549]]}},{"type":"Feature","id":"way/1315734738","properties":{"waterway":"drain","source":"OpenStreetMap"},"geometry":{"type":"LineString","coordinates":[[119.9691428,30.3626759],[119.9696738,30.3626426]]}},{"type":"Feature","id":"way/1315734739","properties":{"layer":"-1","tunnel":"culvert","waterway":"drain","source":"OpenStreetMap"},"geometry":{"type":"LineString","coordinates":[[119.9686977,30.3626549],[119.9691428,30.3626759]]}},{"type":"Feature","id":"way/1316619820","properties":{"building":"retail","name":"喜悦和商业中心","source":"OpenStreetMap"},"geometry":{"type":"Polygon","coordinates":[[[119.9765941,30.3612593],[119.9765983,30.3605388],[119.976699,30.3605098],[119.9797413,30.3604989],[119.9798462,30.3605931],[119.9798294,30.3612919],[119.9795315,30.3613498],[119.9776767,30.3614005],[119.9765941,30.3612593]]]}},{"type":"Feature","id":"way/1416255375","properties":{"building":"yes","long_name":"科研一号楼","name":"R3 科研三号楼","name:en":"Research Building 3","name:fr":"Bâtiment de recherche 3","source":"OpenStreetMap轮廓＋北航官网校区图核对名称；高度按照片层数估算","model":"courtyard","displayHeight":26},"geometry":{"type":"Polygon","coordinates":[[[119.9742856,30.3646126],[119.975486,30.3646164],[119.9754929,30.3630288],[119.9740757,30.3630242],[119.9740713,30.3640237],[119.975138,30.3640272],[119.9751369,30.3642965],[119.9742869,30.3642939],[119.9742856,30.3646126]]]}},{"type":"Feature","id":"way/1416255376","properties":{"building":"yes","long_name":"科研二号楼","name":"R2 科研二号楼","name:en":"Research Building 2","name:fr":"Bâtiment de recherche 2","source":"OpenStreetMap轮廓＋北航官网校区图核对名称；高度按照片层数估算","model":"courtyard","displayHeight":26},"geometry":{"type":"Polygon","coordinates":[[[119.9711927,30.3647524],[119.97119,30.3644261],[119.97038,30.3644284],[119.9703854,30.3642039],[119.9713965,30.3641993],[119.9714019,30.3631903],[119.9701922,30.3631926],[119.9701896,30.3635328],[119.9710264,30.3635328],[119.9710318,30.3637688],[119.9705248,30.3637619],[119.9705221,30.363836],[119.9700179,30.3638313],[119.9700501,30.3647432],[119.9711927,30.3647524]]]}},{"type":"Feature","id":"way/1416255377","properties":{"building":"yes","long_name":"科研一号楼","name":"R1 科研一号楼","name:en":"Research Building 1","name:fr":"Bâtiment de recherche 1","source":"OpenStreetMap轮廓＋北航官网校区图核对名称；高度按照片层数估算","model":"courtyard","displayHeight":26},"geometry":{"type":"Polygon","coordinates":[[[119.9702632,30.3621373],[119.9714112,30.3621419],[119.9714246,30.36123],[119.9703974,30.3612277],[119.9703893,30.3609222],[119.9712154,30.3609199],[119.9712208,30.3606468],[119.9700674,30.3606399],[119.9700701,30.3615656],[119.9710813,30.3615749],[119.9710813,30.3618572],[119.9702471,30.3618595],[119.9702632,30.3621373]]]}},{"type":"Feature","id":"way/1420681224","properties":{"highway":"secondary","name":"前程路","oneway":"yes","source":"OpenStreetMap"},"geometry":{"type":"LineString","coordinates":[[119.9692789,30.3691152],[119.9690923,30.3691167],[119.9688906,30.3691169],[119.9662932,30.3691197]]}},{"type":"Feature","id":"way/1420681249","properties":{"highway":"secondary","name":"前程路","oneway":"yes","source":"OpenStreetMap"},"geometry":{"type":"LineString","coordinates":[[119.9662883,30.3689518],[119.9670312,30.3689534],[119.9688854,30.3689574],[119.9690876,30.3689553],[119.969304,30.3689494]]}},{"type":"Feature","id":"way/1420700128","properties":{"highway":"secondary","oneway":"yes","source":"OpenStreetMap"},"geometry":{"type":"LineString","coordinates":[[119.9699231,30.3580385],[119.9763277,30.3580403]]}},{"type":"Feature","id":"way/1420700129","properties":{"highway":"tertiary","name":"紫塍路","source":"OpenStreetMap"},"geometry":{"type":"LineString","coordinates":[[119.9759808,30.3693803],[119.9760159,30.368666]]}},{"type":"Feature","id":"way/1420700130","properties":{"highway":"secondary","name":"前程路","oneway":"yes","source":"OpenStreetMap"},"geometry":{"type":"LineString","coordinates":[[119.9699295,30.3689523],[119.9712309,30.3689906],[119.9723617,30.3690401],[119.9731064,30.3691101],[119.9759808,30.3693803]]}},{"type":"Feature","id":"way/1420700136","properties":{"highway":"primary","name":"瓶仓大道","oneway":"yes","source":"OpenStreetMap"},"geometry":{"type":"LineString","coordinates":[[119.9690923,30.3691167],[119.9691256,30.3703998],[119.9691565,30.371793],[119.969179,30.3723411]]}},{"type":"Feature","id":"way/1420700139","properties":{"highway":"secondary","name":"前程路","oneway":"yes","source":"OpenStreetMap"},"geometry":{"type":"LineString","coordinates":[[119.9759748,30.3695132],[119.9750724,30.3694296],[119.9741045,30.3693399],[119.9732384,30.3692604],[119.9724127,30.3691745],[119.9723672,30.3691715],[119.9716289,30.3691224],[119.971594,30.3691219],[119.9712409,30.3691172],[119.9704956,30.3691085],[119.969927,30.3691121]]}},{"type":"Feature","id":"way/1420700140","properties":{"highway":"tertiary","name":"紫塍路","source":"OpenStreetMap"},"geometry":{"type":"LineString","coordinates":[[119.9758849,30.3722225],[119.9759748,30.3695132]]}},{"type":"Feature","id":"way/1420700141","properties":{"highway":"tertiary","source":"OpenStreetMap"},"geometry":{"type":"LineString","coordinates":[[119.9763334,30.3581478],[119.9763277,30.3580403]]}},{"type":"Feature","id":"way/1420700142","properties":{"highway":"secondary","oneway":"yes","source":"OpenStreetMap"},"geometry":{"type":"LineString","coordinates":[[119.9763334,30.3581478],[119.9737585,30.3581589],[119.9699281,30.3581754]]}},{"type":"Feature","id":"way/1493626125","properties":{"building":"yes","source":"OpenStreetMap轮廓＋北航官网校区图核对名称；高度按照片层数估算","name":"L1—L4 南区实验楼群","model":"south-labs","displayHeight":24},"geometry":{"type":"Polygon","coordinates":[[[119.974108,30.3600632],[119.9754503,30.3600708],[119.9754592,30.3589092],[119.9741167,30.3589016],[119.974108,30.3600632]]]}},{"type":"Feature","id":"way/1493626126","properties":{"building":"yes","source":"HENN总平面、剖面与建成照片：屋顶长395m、跨度168m；曲率、楼体细节为按图比例重建","name":"飞翔屋顶·中央组团","model":"flying-roof","displayHeight":43,"sourceUrl":"https://www.henn.com/en/project/hangzhou-international-innovation-institute"},"geometry":{"type":"Polygon","coordinates":[[[119.9718308,30.3609611],[119.9735544,30.3609622],[119.9735514,30.3645],[119.9718274,30.3644987],[119.9718308,30.3609611]]]}},{"type":"Feature","id":"way/1493626127","properties":{"building":"shed","source":"OpenStreetMap轮廓＋北航官网校区图核对名称；高度按照片层数估算","name":"田径场膜结构看台","model":"membrane","displayHeight":9},"geometry":{"type":"Polygon","coordinates":[[[119.9696211,30.3601013],[119.9696095,30.3600965],[119.9695644,30.3599582],[119.9695018,30.3597458],[119.9694946,30.359459],[119.969538,30.3591597],[119.9695886,30.3589757],[119.9696211,30.3588915],[119.9696717,30.3588853],[119.9696927,30.3589151],[119.9696949,30.3600795],[119.969674,30.3601009],[119.9696472,30.3601105],[119.9696211,30.3601013]]]}},{"type":"Feature","id":"way/1493626128","properties":{"leisure":"sports_centre","source":"OpenStreetMap"},"geometry":{"type":"Polygon","coordinates":[[[119.9718392,30.3665386],[119.9728077,30.366542],[119.9728158,30.3648624],[119.9718469,30.364859],[119.9718392,30.3665386]]]}},{"type":"Feature","id":"way/1493626129","properties":{"highway":"path","source":"OpenStreetMap"},"geometry":{"type":"LineString","coordinates":[[119.9717216,30.3668037],[119.9715501,30.3668222],[119.9713574,30.3668328],[119.9708525,30.3668513],[119.9703048,30.3668618],[119.9700784,30.3668381],[119.9699162,30.3667879],[119.9698765,30.3666902],[119.9698856,30.3662441],[119.9698917,30.36612],[119.9699315,30.3659431],[119.9700325,30.3657002],[119.9700784,30.365489],[119.9700662,30.3653623],[119.9700539,30.3651511],[119.97006,30.3650904],[119.9701396,30.3650323],[119.9702528,30.3649821],[119.9707699,30.364998],[119.9717142,30.3649953]]}},{"type":"Feature","id":"way/1493626130","properties":{"highway":"footway","source":"OpenStreetMap"},"geometry":{"type":"LineString","coordinates":[[119.9738169,30.3647232],[119.9738014,30.36549],[119.9737961,30.3662294],[119.9737754,30.3668195]]}},{"type":"Feature","id":"way/1493626332","properties":{"building":"yes","source":"OpenStreetMap轮廓＋北航官网校区图核对名称；高度按照片层数估算","name":"北区配套楼"},"geometry":{"type":"Polygon","coordinates":[[[119.9718891,30.3668813],[119.972783,30.3668874],[119.9727857,30.3665998],[119.9718918,30.3665935],[119.9718891,30.3668813]]]}},{"type":"Feature","id":"way/1493628595","properties":{"building":"yes","source":"OpenStreetMap"},"geometry":{"type":"Polygon","coordinates":[[[119.972494,30.3676701],[119.9728136,30.3676693],[119.9728133,30.3675957],[119.9724937,30.3675966],[119.972494,30.3676701]]]}},{"type":"Feature","id":"way/1493628596","properties":{"building":"yes","source":"OpenStreetMap"},"geometry":{"type":"Polygon","coordinates":[[[119.9724933,30.367854],[119.9728129,30.3678532],[119.9728126,30.3677796],[119.972493,30.3677805],[119.9724933,30.367854]]]}},{"type":"Feature","id":"way/1493628597","properties":{"building":"yes","source":"OpenStreetMap"},"geometry":{"type":"Polygon","coordinates":[[[119.9724973,30.3679551],[119.9728169,30.3679543],[119.9728166,30.3678807],[119.972497,30.3678816],[119.9724973,30.3679551]]]}},{"type":"Feature","id":"way/1493628598","properties":{"building":"yes","source":"OpenStreetMap"},"geometry":{"type":"Polygon","coordinates":[[[119.9724973,30.3680389],[119.9728169,30.3680381],[119.9728166,30.3679645],[119.972497,30.3679654],[119.9724973,30.3680389]]]}},{"type":"Feature","id":"way/1493628599","properties":{"building":"yes","source":"OpenStreetMap"},"geometry":{"type":"Polygon","coordinates":[[[119.9724947,30.3681401],[119.9728143,30.3681393],[119.972814,30.3680657],[119.9724944,30.3680666],[119.9724947,30.3681401]]]}},{"type":"Feature","id":"way/1493628600","properties":{"building":"yes","source":"OpenStreetMap"},"geometry":{"type":"Polygon","coordinates":[[[119.9724893,30.3682228],[119.9728089,30.368222],[119.9728086,30.3681484],[119.972489,30.3681493],[119.9724893,30.3682228]]]}},{"type":"Feature","id":"way/1493628601","properties":{"building":"yes","source":"OpenStreetMap"},"geometry":{"type":"Polygon","coordinates":[[[119.9724906,30.3683228],[119.9728102,30.368322],[119.9728099,30.3682484],[119.9724903,30.3682493],[119.9724906,30.3683228]]]}},{"type":"Feature","id":"way/1493628602","properties":{"building":"yes","source":"OpenStreetMap"},"geometry":{"type":"Polygon","coordinates":[[[119.9724933,30.3684067],[119.9728129,30.3684059],[119.9728126,30.3683323],[119.972493,30.3683332],[119.9724933,30.3684067]]]}},{"type":"Feature","id":"way/1493628603","properties":{"building":"yes","source":"OpenStreetMap"},"geometry":{"type":"Polygon","coordinates":[[[119.972489,30.3685091],[119.9727866,30.3685096],[119.9727868,30.368436],[119.9724892,30.3684356],[119.972489,30.3685091]]]}},{"type":"Feature","id":"way/1493628604","properties":{"building":"yes","source":"OpenStreetMap"},"geometry":{"type":"Polygon","coordinates":[[[119.9724776,30.3686552],[119.9727418,30.3686548],[119.9727417,30.3685836],[119.9724774,30.368584],[119.9724776,30.3686552]]]}},{"type":"Feature","id":"way/1493638691","properties":{"highway":"service","source":"OpenStreetMap"},"geometry":{"type":"LineString","coordinates":[[119.9699294,30.3603772],[119.9699019,30.3607006],[119.9698729,30.3609569],[119.9698519,30.3612376],[119.9698551,30.3614564],[119.9698955,30.3616584],[119.9699552,30.3618075],[119.9700149,30.3619357],[119.9701038,30.3620737],[119.9701926,30.3621726],[119.9702412,30.3621915],[119.9702975,30.3622135],[119.9704403,30.3622324],[119.9706381,30.362253],[119.9708524,30.362253],[119.9710539,30.3622372],[119.9712627,30.3622577],[119.9714587,30.3623114],[119.9715741,30.3623557],[119.9716556,30.3623887],[119.9717086,30.3624124]]}},{"type":"Feature","id":"way/1493638692","properties":{"highway":"service","source":"OpenStreetMap"},"geometry":{"type":"LineString","coordinates":[[119.9717097,30.36299],[119.9716231,30.3630015],[119.9715269,30.3630015],[119.971412,30.3629784],[119.9712649,30.3629623],[119.9711416,30.3629592],[119.9710036,30.3629841],[119.9707925,30.3630213],[119.9706564,30.3630442],[119.9705336,30.3630605],[119.9702998,30.3630915],[119.9701625,30.3631325],[119.9701301,30.3631728],[119.9700443,30.3632814],[119.9699819,30.3634118],[119.9699682,30.3634674],[119.969933,30.3636128],[119.9698966,30.363785],[119.9698753,30.3639669],[119.9698715,30.3641857],[119.9698783,30.3644189],[119.9698912,30.3645136],[119.9699154,30.3646153],[119.9699412,30.3646753],[119.9699654,30.3647129],[119.9699961,30.3647435],[119.9700397,30.3647561],[119.9700898,30.3647658],[119.970361,30.3647658],[119.9706791,30.3647658],[119.9711285,30.3647672],[119.9711964,30.3647686],[119.9712303,30.3647686],[119.9712739,30.3647588],[119.9713126,30.3647379],[119.9713401,30.3647184],[119.9713643,30.3646836],[119.9713853,30.3646474],[119.971403,30.3646209],[119.9714208,30.3646014],[119.9714466,30.3645847],[119.971508,30.3645736],[119.9715968,30.364568],[119.9717128,30.364568]]}},{"type":"Feature","id":"way/1493638693","properties":{"highway":"service","source":"OpenStreetMap"},"geometry":{"type":"LineString","coordinates":[[119.9701625,30.3631325],[119.9701312,30.3630487],[119.9701,30.362916],[119.9700932,30.3628857],[119.9701274,30.3628328],[119.9701482,30.3627876],[119.9701664,30.362741],[119.9701741,30.3626986],[119.9701652,30.3626471],[119.9701464,30.3626022],[119.9701265,30.3625611],[119.9701022,30.3625239],[119.9700997,30.362508],[119.9700977,30.3624953],[119.9701066,30.3624456],[119.9701145,30.3623997],[119.9701403,30.3623456],[119.9701833,30.3622796],[119.9702412,30.3621915]]}},{"type":"Feature","id":"way/1493638694","properties":{"highway":"service","source":"OpenStreetMap"},"geometry":{"type":"LineString","coordinates":[[119.9700932,30.3628857],[119.9700624,30.3628596],[119.9700462,30.3628382],[119.9700316,30.362795],[119.9700204,30.3627527],[119.9700126,30.3627126],[119.9700144,30.3626622],[119.9700281,30.3626177],[119.9700436,30.3625687],[119.9700711,30.3625309],[119.9700997,30.362508]]}},{"type":"Feature","id":"way/1493638695","properties":{"highway":"residential","source":"OpenStreetMap"},"geometry":{"type":"LineString","coordinates":[[119.9728669,30.3647215],[119.972874,30.3650515],[119.9728654,30.3653794],[119.972867,30.3656377],[119.9728686,30.3658945],[119.9728684,30.3659098],[119.9728651,30.366211],[119.9728642,30.3665236],[119.972864,30.3665525],[119.9724697,30.3665538],[119.9717206,30.3665501]]}},{"type":"Feature","id":"way/1493638696","properties":{"highway":"service","source":"OpenStreetMap"},"geometry":{"type":"LineString","coordinates":[[119.9728642,30.3665236],[119.9730394,30.3665236],[119.973304,30.3665259],[119.9734831,30.3665213],[119.9736034,30.3665074],[119.9736676,30.3664682],[119.9736963,30.3664123],[119.9736983,30.3663564],[119.9736903,30.3662953],[119.9736575,30.3662532],[119.9736195,30.3662226],[119.9735893,30.3662068],[119.9733487,30.3662079],[119.9730738,30.3662089],[119.9729265,30.3662098]]}},{"type":"Feature","id":"way/1493638697","properties":{"highway":"residential","source":"OpenStreetMap"},"geometry":{"type":"LineString","coordinates":[[119.972864,30.3665525],[119.9728617,30.3668482],[119.9736551,30.3668458],[119.9742164,30.3668667],[119.9746241,30.3668671],[119.9747,30.3668336],[119.9747344,30.366792],[119.9747611,30.366746],[119.9747714,30.3666963],[119.9747697,30.3666333],[119.97477,30.366527],[119.974771,30.366233],[119.974772,30.3659123],[119.9747729,30.3656507],[119.9747729,30.3656379],[119.9747738,30.3653537],[119.9747748,30.3650524],[119.9747758,30.3647286]]}},{"type":"Feature","id":"way/1493638698","properties":{"highway":"service","source":"OpenStreetMap"},"geometry":{"type":"LineString","coordinates":[[119.9747738,30.3653537],[119.9749008,30.3653574],[119.9750716,30.36535],[119.9752069,30.3653488],[119.9752965,30.3653402],[119.9753563,30.3652923],[119.9753805,30.3652309],[119.9753763,30.3651658],[119.9753435,30.3650945],[119.9753065,30.3650663],[119.9752041,30.3650427],[119.9750113,30.3650471],[119.9748629,30.3650485],[119.9747748,30.3650524]]}},{"type":"Feature","id":"way/1493638699","properties":{"highway":"service","source":"OpenStreetMap"},"geometry":{"type":"LineString","coordinates":[[119.974772,30.3659123],[119.9749012,30.365916],[119.9750478,30.3659123],[119.9751531,30.3659],[119.9752015,30.3658582],[119.9752229,30.3657981],[119.97522,30.3657281],[119.9751845,30.365674],[119.9751204,30.3656544],[119.9749923,30.3656482],[119.9748571,30.3656482],[119.9747729,30.3656507]]}},{"type":"Feature","id":"way/1493638700","properties":{"highway":"service","source":"OpenStreetMap"},"geometry":{"type":"LineString","coordinates":[[119.9747738,30.3653537],[119.97442,30.3653473],[119.9741496,30.3653485],[119.9740414,30.3653449],[119.9739873,30.3653301],[119.9739318,30.365281],[119.9739104,30.365222],[119.9739175,30.3651606],[119.9739332,30.3651225],[119.9739674,30.3650787],[119.9739963,30.3650602],[119.9742795,30.3650631],[119.9746554,30.3650611]]}},{"type":"Feature","id":"way/1493638701","properties":{"highway":"service","source":"OpenStreetMap"},"geometry":{"type":"LineString","coordinates":[[119.97477,30.366527],[119.974171,30.3665225],[119.9740457,30.3665249],[119.9739546,30.3664832],[119.9739176,30.3664119],[119.9739119,30.3663309],[119.9739262,30.3662523],[119.9739489,30.3662203],[119.974023,30.3661982],[119.9746094,30.3661982]]}},{"type":"Feature","id":"way/1493638702","properties":{"highway":"service","source":"OpenStreetMap"},"geometry":{"type":"LineString","coordinates":[[119.97477,30.366527],[119.9751115,30.3665305],[119.975204,30.3665278],[119.9752476,30.3665216],[119.975286,30.3665019],[119.9753193,30.3664741],[119.97534,30.3664382],[119.9753515,30.3663862],[119.9753442,30.366328],[119.9753234,30.366285],[119.9752798,30.3662428],[119.9752331,30.3662303],[119.974771,30.366233]]}},{"type":"Feature","id":"way/1493642836","properties":{"highway":"service","source":"OpenStreetMap"},"geometry":{"type":"LineString","coordinates":[[119.972867,30.3656377],[119.9731179,30.3656351],[119.9734166,30.3656364],[119.9735742,30.3656416],[119.9736273,30.3656769],[119.9736531,30.3657306],[119.9736576,30.3657763],[119.9736455,30.365826],[119.9736243,30.3658692],[119.9735606,30.3658993],[119.9734908,30.3659111],[119.9732968,30.3659124],[119.9730951,30.3659111],[119.9729572,30.3659098],[119.9728684,30.3659098]]}},{"type":"Feature","id":"way/1493642837","properties":{"highway":"service","source":"OpenStreetMap"},"geometry":{"type":"LineString","coordinates":[[119.974772,30.3659123],[119.9744526,30.36591],[119.9740786,30.3659121],[119.9740571,30.3659107],[119.9740159,30.3658925],[119.9739948,30.3658777],[119.9739746,30.3658591],[119.9739582,30.3658417],[119.9739518,30.3658113],[119.97395,30.3657816],[119.9739492,30.3657447],[119.9739628,30.3657005],[119.9739998,30.3656649],[119.9740204,30.3656489],[119.9740653,30.365641],[119.9743628,30.3656416],[119.9746453,30.3656379],[119.9747729,30.3656379]]}},{"type":"Feature","id":"way/1493642838","properties":{"highway":"service","source":"OpenStreetMap"},"geometry":{"type":"LineString","coordinates":[[119.9737489,30.3588203],[119.9739081,30.3588159],[119.9742249,30.3588171],[119.9754242,30.3588185],[119.9754712,30.3588238],[119.9755121,30.3588342],[119.9755364,30.3588513],[119.9755652,30.35888],[119.9755818,30.3589193],[119.9755834,30.3593],[119.9755788,30.3599557],[119.97556,30.3600257],[119.975517,30.3600539],[119.975474,30.3600673],[119.975419,30.3600865],[119.9754098,30.3600869],[119.9754042,30.3601893],[119.9754056,30.3603724],[119.9750796,30.3603732],[119.9739895,30.3603689],[119.9737274,30.3603719]]}},{"type":"Feature","id":"way/1493642839","properties":{"highway":"service","source":"OpenStreetMap"},"geometry":{"type":"LineString","coordinates":[[119.9754056,30.3603724],[119.9755142,30.3603705],[119.9755453,30.3603736],[119.9755728,30.3603894],[119.9756012,30.3604108],[119.9756332,30.3604716],[119.9756497,30.3605317],[119.9756607,30.360719],[119.9756623,30.3612309],[119.9756541,30.3616111],[119.9756349,30.3620904],[119.9756099,30.3622212],[119.9755933,30.362258],[119.975559,30.3623084],[119.9755081,30.362364],[119.9754541,30.3624169],[119.9753939,30.36252],[119.9753544,30.3626293],[119.9753513,30.3627073],[119.97537,30.362788],[119.975398,30.3628445],[119.9754385,30.3629126],[119.9755092,30.3630022],[119.9755351,30.3630757],[119.9755383,30.3632012],[119.9755393,30.363688],[119.9755424,30.3641893],[119.9755372,30.3644595],[119.9755196,30.3645843],[119.9754707,30.3646596],[119.9753959,30.3647321]]}},{"type":"Feature","id":"way/1493642840","properties":{"highway":"service","source":"OpenStreetMap"},"geometry":{"type":"LineString","coordinates":[[119.9725541,30.3603884],[119.9725736,30.3589202]]}},{"type":"Feature","id":"way/1493642841","properties":{"highway":"service","source":"OpenStreetMap"},"geometry":{"type":"LineString","coordinates":[[119.9729572,30.3603901],[119.9729503,30.3589179]]}},{"type":"Feature","id":"way/1493760247","properties":{"leisure":"sports_centre","source":"OpenStreetMap"},"geometry":{"type":"Polygon","coordinates":[[[119.9696095,30.3600965],[119.9696104,30.3601507],[119.9697267,30.3603056],[119.9707172,30.3603063],[119.9707383,30.3602665],[119.9707111,30.3589997],[119.9707838,30.3589255],[119.9707742,30.3586998],[119.9704172,30.3587065],[119.9702976,30.3586765],[119.9701383,30.3586725],[119.970055,30.3586578],[119.9698562,30.3586625],[119.969765,30.3586981],[119.9696601,30.3587876],[119.9696188,30.358856],[119.9696211,30.3588915],[119.9695886,30.3589757],[119.969538,30.3591597],[119.9694946,30.359459],[119.9695018,30.3597458],[119.9695644,30.3599582],[119.9696095,30.3600965]]]}},{"type":"Feature","id":"reference/hangzhou/144","properties":{"building":"yes","name":"A5 教师发展中心","source":"北航官网校区图配准描绘；轮廓、位置及未注明高度为估算","displayHeight":18},"geometry":{"type":"Polygon","coordinates":[[[119.97523517607794,30.365985621751424],[119.9753520662265,30.365988309603058],[119.97535224739104,30.365746533032354],[119.9752353572425,30.36574384518072],[119.97523517607794,30.365985621751424]]]}},{"type":"Feature","id":"reference/hangzhou/145","properties":{"name":"北区篮球场","source":"北航官网校区图配准描绘；轮廓、位置及未注明高度为估算","leisure":"pitch","sport":"basketball"},"geometry":{"type":"Polygon","coordinates":[[[119.97180893973693,30.36651518807162],[119.97274406092538,30.366536690884697],[119.9727446687032,30.365725569486205],[119.97180954751477,30.36570406667313],[119.97180893973693,30.36651518807162]]]}},{"type":"Feature","id":"reference/hangzhou/146","properties":{"name":"北区足球场","source":"北航官网校区图配准描绘；轮廓、位置及未注明高度为估算","leisure":"pitch","sport":"soccer"},"geometry":{"type":"Polygon","coordinates":[[[119.97180965270708,30.365563680277234],[119.97234015415053,30.365575878988498],[119.97234069180014,30.3648583485206],[119.9718101903567,30.364846149809335],[119.97180965270708,30.365563680277234]]]}},{"type":"Feature","id":"reference/hangzhou/147","properties":{"name":"北区排球场","source":"北航官网校区图配准描绘；轮廓、位置及未注明高度为估算","leisure":"pitch","sport":"volleyball"},"geometry":{"type":"Polygon","coordinates":[[[119.97235833010288,30.365318917445],[119.9727449667481,30.36532780803117],[119.97274531154514,30.36486765262241],[119.97235867489992,30.364858762036235],[119.97235833010288,30.365318917445]]]}},{"type":"Feature","id":"reference/hangzhou/148","properties":{"name":"北区网球场","source":"北航官网校区图配准描绘；轮廓、位置及未注明高度为估算","leisure":"pitch","sport":"tennis"},"geometry":{"type":"Polygon","coordinates":[[[119.97235805543406,30.365685481923162],[119.97274469207927,30.36569437250934],[119.97274493168399,30.36537460349647],[119.97235829503877,30.365365712910293],[119.97235805543406,30.365685481923162]]]}},{"type":"Feature","id":"reference/hangzhou/149","properties":{"name":"湿地园","source":"北航官网校区图配准描绘；轮廓、位置及未注明高度为估算","natural":"water"},"geometry":{"type":"Polygon","coordinates":[[[119.97127201201242,30.36259925260197],[119.97126435771457,30.362552383687596],[119.97124151332196,30.362506315216155],[119.97120404133932,30.362462181546316],[119.97115286445126,30.362421069395495],[119.97108924280256,30.362383991081295],[119.97101474296942,30.36235185959486],[119.97093119938492,30.362325466120026],[119.97084066916943,30.362305460551745],[119.97074538147729,30.362292335493496],[119.9706476826077,30.362286414127773],[119.9705499782311,30.362287842258254],[119.97045467415349,30.36229658471963],[119.97036411707757,30.36231242624348],[119.97028053681908,30.362334976758916],[119.97020599140137,30.362363680997408],[119.97014231638003,30.36239783216534],[119.97009107964541,30.362436589347613],[119.97005354281598,30.362478998213778],[119.97003063017301,30.362524014516794],[119.97002290590187,30.36257052980589],[119.97003056019972,30.362617398720268],[119.97005340459233,30.362663467191705],[119.97009087657497,30.362707600861544],[119.97014205346304,30.362748713012365],[119.97020567511173,30.36278579132657],[119.97028017494488,30.362817922813],[119.97036371852937,30.362844316287834],[119.97045424874486,30.36286432185612],[119.970549536437,30.362877446914368],[119.97064723530659,30.362883368280087],[119.97074493968319,30.362881940149606],[119.9708402437608,30.362873197688234],[119.97093080083673,30.36285735616438],[119.97101438109522,30.362834805648944],[119.97108892651292,30.362806101410452],[119.97115260153426,30.36277195024252],[119.97120383826888,30.362733193060247],[119.97124137509832,30.362690784194086],[119.97126428774128,30.362645767891067],[119.97127201201242,30.36259925260197]]]}},{"type":"Feature","id":"reference/hangzhou/150","properties":{"name":"印象园","source":"北航官网校区图配准描绘；轮廓、位置及未注明高度为估算","natural":"water"},"geometry":{"type":"Polygon","coordinates":[[[119.97538546917757,30.36268994054646],[119.97537714935036,30.362647778083012],[119.97535233183316,30.3626062697295],[119.97531162771561,30.362566437559348],[119.97525603926816,30.362529262372774],[119.97518693526288,30.362495659546255],[119.97510601726972,30.3624664564929],[119.97501527775822,30.362442372288804],[119.9749169510363,30.362423999966996],[119.9748134582342,30.36241179191502],[119.97470734768817,30.362406048735625],[119.97460123219199,30.362406911844957],[119.97449772466138,30.362414359990392],[119.97439937379526,30.362428209773878],[119.97430860131837,30.362448120167773],[119.97422764235033,30.362473600912104],[119.97415849036963,30.36250402458638],[119.97410284812753,30.36253864205877],[119.9740620857207,30.362576600932215],[119.9740372068549,30.36261696653327],[119.97402882413034,30.362658744926875],[119.97403714395755,30.362700907390323],[119.97406196147473,30.362742415743835],[119.9741026655923,30.362782247913987],[119.97415825403975,30.36281942310056],[119.97422735804503,30.36285302592708],[119.97430827603819,30.362882228980435],[119.9743990155497,30.36290631318453],[119.9744973422716,30.36292468550634],[119.9746008350737,30.362936893558317],[119.97470694561974,30.362942636737706],[119.97481306111592,30.36294177362838],[119.97491656864652,30.36293432548294],[119.97501491951265,30.362920475699458],[119.97510569198954,30.362900565305562],[119.97518665095758,30.36287508456123],[119.97525580293828,30.362844660886957],[119.97531144518038,30.362810043414566],[119.97535220758719,30.36277208454112],[119.97537708645301,30.362731718940065],[119.97538546917757,30.36268994054646]]]}},{"type":"Feature","id":"reference/hangzhou/151","properties":{"name":"400米田径场","source":"北航官网校区图配准描绘；轮廓、位置及未注明高度为估算；跑道按场地中心与轴向简化，非测绘线位","leisure":"track","sport":"running"},"geometry":{"type":"Polygon","coordinates":[[[119.97060744031583,30.359022385980833],[119.97060655695563,30.3589981315368],[119.9706039103612,30.35897397281398],[119.9705995109775,30.358950005155812],[119.97059337616683,30.35892632315169],[119.97058553014053,30.358903020263668],[119.97057600386323,30.3588801884576],[119.97056483493084,30.35885791784019],[119.97055206742203,30.358836296303398],[119.97053775172431,30.35881540917754],[119.97052194433519,30.35879533889457],[119.97050470763922,30.35877616466272],[119.97048610966178,30.358757962153927],[119.97046622380059,30.358740803205173],[119.97044512853603,30.358724755534993],[119.97042290712149,30.358709882476205],[119.97039964725475,30.358696242725983],[119.97037544073187,30.35868389011419],[119.97035038308492,30.358672873390933],[119.97032457320502,30.358663236034193],[119.97029811295195,30.358655016078213],[119.97027110675224,30.358648245963405],[119.97024366118703,30.358642952408317],[119.97021588457143,30.35863915630419],[119.97018788652704,30.35863687263252],[119.97015977754936,30.358636110405907],[119.97013166857167,30.35863687263252],[119.97010367052728,30.35863915630419],[119.97007589391168,30.358642952408317],[119.97004844834647,30.358648245963405],[119.97002144214676,30.358655016078213],[119.96999498189369,30.358663236034193],[119.96996917201379,30.358672873390933],[119.96994411436684,30.35868389011419],[119.96991990784396,30.358696242725983],[119.96989664797722,30.358709882476205],[119.96987442656268,30.358724755534993],[119.96985333129813,30.358740803205173],[119.96983344543693,30.358757962153927],[119.96981484745949,30.35877616466272],[119.96979761076352,30.35879533889457],[119.9697818033744,30.35881540917754],[119.96976748767668,30.358836296303398],[119.96975472016787,30.35885791784019],[119.96974355123548,30.3588801884576],[119.96973402495819,30.358903020263668],[119.96972617893188,30.35892632315169],[119.96972004412122,30.358950005155812],[119.9697156447375,30.35897397281398],[119.96971299814308,30.3589981315368],[119.96971211478288,30.3598308697423],[119.96971299814308,30.359855124186332],[119.9697156447375,30.35987928290915],[119.96972004412122,30.35990325056732],[119.96972617893188,30.359926932571444],[119.96973402495819,30.359950235459465],[119.96974355123548,30.359973067265532],[119.96975472016787,30.359995337882943],[119.96976748767668,30.360016959419735],[119.9697818033744,30.36003784654559],[119.96979761076352,30.360057916828563],[119.96981484745949,30.36007709106041],[119.96983344543693,30.360095293569206],[119.96985333129813,30.36011245251796],[119.96987442656268,30.36012850018814],[119.96989664797722,30.360143373246927],[119.96991990784396,30.36015701299715],[119.96994411436684,30.360169365608943],[119.96996917201379,30.3601803823322],[119.96999498189369,30.36019001968894],[119.97002144214676,30.36019823964492],[119.97004844834647,30.360205009759728],[119.97007589391168,30.360210303314815],[119.97010367052728,30.360214099418943],[119.97013166857167,30.360216383090613],[119.97015977754936,30.360217145317225],[119.97018788652704,30.360216383090613],[119.97021588457143,30.360214099418943],[119.97024366118703,30.360210303314815],[119.97027110675224,30.360205009759728],[119.97029811295195,30.36019823964492],[119.97032457320502,30.36019001968894],[119.97035038308492,30.3601803823322],[119.97037544073187,30.360169365608943],[119.97039964725475,30.36015701299715],[119.97042290712149,30.360143373246927],[119.97044512853603,30.36012850018814],[119.97046622380059,30.36011245251796],[119.97048610966178,30.360095293569206],[119.97050470763922,30.36007709106041],[119.97052194433519,30.360057916828563],[119.97053775172431,30.36003784654559],[119.97055206742203,30.360016959419735],[119.97056483493084,30.359995337882943],[119.97057600386323,30.359973067265532],[119.97058553014053,30.359950235459465],[119.97059337616683,30.359926932571444],[119.9705995109775,30.35990325056732],[119.9706039103612,30.35987928290915],[119.97060655695563,30.359855124186332],[119.97060744031583,30.359022385980833]]]}},{"type":"Feature","id":"reference/hangzhou/152","properties":{"name":"南广场","source":"北航官网校区图配准描绘；轮廓、位置及未注明高度为估算","amenity":"square","surface":"paving_stones"},"geometry":{"type":"Polygon","coordinates":[[[119.9717956201632,30.360290977671383],[119.97368384563985,30.360334396813172],[119.97368493262714,30.35888373738894],[119.97179670715047,30.358840318247154],[119.9717956201632,30.360290977671383]]]}},{"type":"Feature","id":"reference/hangzhou/153","properties":{"building":"yes","name":"南门","source":"北航官网校区图配准描绘；轮廓、位置及未注明高度为估算","displayHeight":9,"model":"gate"},"geometry":{"type":"Polygon","coordinates":[[[119.97248905064791,30.358864037843357],[119.97305551829089,30.358877063585894],[119.97305557673107,30.358799071143732],[119.97248910908807,30.358786045401196],[119.97248905064791,30.358864037843357]]]}},{"type":"Feature","id":"reference/hangzhou/path/154","properties":{"name":"南广场中轴","highway":"footway","source":"北航官网导览图配准；路径简化"},"geometry":{"type":"LineString","coordinates":[[119.97274081404478,30.358869827062264],[119.97273973290153,30.360312687242278]]}},{"type":"Feature","id":"reference/hangzhou/path/155","properties":{"name":"校园西路","highway":"service","source":"北航官网导览图配准；路径简化"},"geometry":{"type":"LineString","coordinates":[[119.97167379181978,30.366878651182518],[119.97167867157448,30.36036628226191]]}},{"type":"Feature","id":"reference/hangzhou/path/156","properties":{"name":"校园东路","highway":"service","source":"北航官网导览图配准；路径简化"},"geometry":{"type":"LineString","coordinates":[[119.97371487364454,30.366925585207213],[119.97371975339924,30.360413216286606]]}},{"type":"Feature","id":"reference/hangzhou/path/157","properties":{"name":"校园北路","highway":"service","source":"北航官网导览图配准；路径简化"},"geometry":{"type":"LineString","coordinates":[[119.96994001810805,30.364709553252588],[119.97578452553577,30.364843945834313]]}},{"type":"Feature","id":"reference/hangzhou/path/158","properties":{"name":"校园南路","highway":"service","source":"北航官网导览图配准；路径简化"},"geometry":{"type":"LineString","coordinates":[[119.96947575938377,30.360292228863845],[119.97566194570727,30.360434478242656]]}},{"type":"Feature","id":"reference/hangzhou/path/159","properties":{"name":"西侧水景步道","highway":"footway","source":"北航官网导览图配准；路径简化"},"geometry":{"type":"LineString","coordinates":[[119.96991437005038,30.362938504542033],[119.97025622426668,30.36271238401263],[119.97053512594572,30.362500414666933],[119.97109271307517,30.362365048011544],[119.97158720741092,30.36243101440105]]}},{"type":"Feature","id":"reference/hangzhou/path/160","properties":{"name":"东侧水景步道","highway":"footway","source":"北航官网导览图配准；路径简化"},"geometry":{"type":"LineString","coordinates":[[119.9737899442811,30.362739045125608],[119.97409554594098,30.36289426053153],[119.97438340994984,30.36272149416473],[119.97488709453208,30.3625224930087],[119.9755433549496,30.362701370457962]]}}],"referenceMap":{"url":"https://zfaien.buaa.edu.cn/Campus/Campus_Map.htm","design":"https://www.henn.com/en/project/hangzhou-international-innovation-institute","method":"OSM实有轮廓为底图；缺失要素由官方导览图配准补绘，细节来自设计方平剖面与照片"}}